{"type": "FeatureCollection", "features": [ {"type": "Feature", "properties": {"norad_id": 66911, "name": "1998-067XX", "group": "stations", "lat": 50.53389659452352, "lon": -105.47483881224508, "alt_km": 405.49669079334126, "timestamp": "2025-12-11T10:53:14.641790+00:00", "meta": {"OBJECT_NAME": "1998-067XX", "OBJECT_ID": "1998-067XX", "EPOCH": "2025-12-11T04:16:32.481408", "MEAN_MOTION": 15.5166419, "ECCENTRICITY": 0.0005192, "INCLINATION": 51.6299, "RA_OF_ASC_NODE": 150.1129, "ARG_OF_PERICENTER": 201.0739, "MEAN_ANOMALY": 159.0037, "EPHEMERIS_TYPE": 0, "CLASSIFICATION_TYPE": "U", "NORAD_CAT_ID": 66911, "ELEMENT_SET_NO": 999, "REV_AT_EPOCH": 136, "BSTAR": 0.0016096, "MEAN_MOTION_DOT": 0.00098261, "MEAN_MOTION_DDOT": 0}, "tle": {"line1": "1 66911U 98067XX  25345.17815372  .00098261  00000+0  16096-2 0  9995", "line2": "2 66911  51.6299 150.1129 0005192 201.0739 159.0037 15.51664190  1368"}}, "geometry": {"type": "Point", "coordinates": [-105.47483881224508, 50.53389659452352]}}, {"type": "Feature", "properties": {"norad_id": 66912, "name": "1998-067XY", "group": "stations", "lat": 50.950496643660124, "lon": -133.62433803178956, "alt_km": 409.2155929950177, "timestamp": "2025-12-11T10:53:14.641802+00:00", "meta": {"OBJECT_NAME": "1998-067XY", "OBJECT_ID": "1998-067XY", "EPOCH": "2025-12-10T17:31:22.847520", "MEAN_MOTION": 15.50838333, "ECCENTRICITY": 0.00047912, "INCLINATION": 51.6309, "RA_OF_ASC_NODE": 152.3712, "ARG_OF_PERICENTER": 213.0974, "MEAN_ANOMALY": 146.9716, "EPHEMERIS_TYPE": 0, "CLASSIFICATION_TYPE": "U", "NORAD_CAT_ID": 66912, "ELEMENT_SET_NO": 999, "REV_AT_EPOCH": 129, "BSTAR": 0.0011490073, "MEAN_MOTION_DOT": 0.00067697, "MEAN_MOTION_DDOT": 0}, "tle": {"line1": "1 66912U 98067XY  25344.73012555  .00067697  00000+0  11490-2 0  9991", "line2": "2 66912  51.6309 152.3712 0004791 213.0974 146.9716 15.50838333  1293"}}, "geometry": {"type": "Point", "coordinates": [-133.62433803178956, 50.950496643660124]}}]}